STARLINK-31476          
1 59523U 24073N   26068.03407429 -.00002186  00000+0 -69917-4 0  9995
2 59523  43.0016 321.8672 0001693 264.7192  95.3466 15.27579294106077
YAOGAN-43 01G           
1 60464U 24148G   26068.44348481  .00010133  00000+0  35873-3 0  9993
2 60464  35.0006  62.0013 0007382 306.3543  53.6492 15.28332833 87004
